1 26536U 00055A   01227.70893451  .00000164  00000-0  11479-3 0  4554
2 26536  98.8298 172.4404 0011756  67.6276 292.6049 14.11209801 46294
1 26536U 00055A   01227.70893451  .00000164  00000-0  11479-3 0  4587
2 26536  98.8298 172.4404 0011756  67.6276 292.6049 14.11209801 46294
1 26536U 00055A   01233.16827961  .00000167  00000-0  11688-3 0  4593
2 26536  98.8301 177.8122 0011639  53.6942 306.5795 14.11214674 47063
1 26536U 00055A   01233.16827961  .00000167  00000-0  11688-3 0  4605
2 26536  98.8301 177.8122 0011639  53.6942 306.5795 14.11214674 47063
1 26536U 00055A   01233.16827961  .00000167  00000-0  11688-3 0  4616
2 26536  98.8301 177.8122 0011639  53.6942 306.5795 14.11214674 47063
1 26536U 00055A   01233.16827961  .00000167  00000-0  11688-3 0  4627
2 26536  98.8301 177.8122 0011639  53.6942 306.5795 14.11214674 47063
1 26536U 00055A   01236.28788434 -.00000019  00000-0  13584-4 0  4630
2 26536  98.8303 180.8802 0011673  45.6293 314.5706 14.11214329 47509
1 26536U 00055A   01239.90380537  .00000607  00000-0  36039-3 0  4680
2 26536  98.8287 184.4362 0011435  35.9825 324.2536 14.11219803 48018
1 26536U 00055A   01239.90380537  .00000607  00000-0  36039-3 0  4691
2 26536  98.8287 184.4362 0011435  35.9825 324.2536 14.11219803 48018
1 26536U 00055A   01242.52709718  .00000438  00000-0  26678-3 0  4723
2 26536  98.8297 187.0180 0011429  28.9511 331.2205 14.11221862 48382
1 26536U 00055A   01242.52709718  .00000438  00000-0  26678-3 0  4734
2 26536  98.8297 187.0180 0011429  28.9511 331.2205 14.11221862 48382
1 26536U 00055A   01242.81070791  .00000475  00000-0  26316-3 0  4716
2 26536  98.8311 187.2971 0011324  28.0318 332.1932 14.11221934 48421
1 26536U 00055A   01246.07209350  .00000128  00000-0  94991-4 0  4768
2 26536  98.8307 190.5062 0011208  19.6597 340.4658 14.11221420 48887
1 26536U 00055A   01246.07209350  .00000128  00000-0  94991-4 0  4779
2 26536  98.8307 190.5062 0011208  19.6597 340.4658 14.11221420 48887
1 26536U 00055A   01247.34830009  .00000296  00000-0  18792-3 0  4782
2 26536  98.8310 191.7616 0011162  15.9568 344.2016 14.11222961 49067
1 26536U 00055A   01247.34830009  .00000296  00000-0  18792-3 0  4793
2 26536  98.8310 191.7616 0011162  15.9568 344.2016 14.11222961 49067
1 26536U 00055A   01247.34830009  .00000296  00000-0  18792-3 0  4805
2 26536  98.8310 191.7616 0011162  15.9568 344.2016 14.11222961 49067
1 26536U 00055A   01247.34830009  .00000296  00000-0  18792-3 0  4827
2 26536  98.8310 191.7616 0011162  15.9568 344.2016 14.11222961 49067
1 26536U 00055A   01249.82980082  .00000370  00000-0  20525-3 0  4818
2 26536  98.8316 194.2028 0011011   8.8557 351.3289 14.11225637 49413
1 26536U 00055A   01250.32609325  .00001024  00000-0  59149-3 0  4836
2 26536  98.8306 194.6919 0010610   7.6590 352.5069 14.11229204 49483
1 26536U 00055A   01250.32609325  .00001024  00000-0  59149-3 0  4847
2 26536  98.8306 194.6919 0010610   7.6590 352.5069 14.11229204 49483
1 26536U 00055A   01250.32609325  .00001024  00000-0  59149-3 0  4869
2 26536  98.8306 194.6919 0010610   7.6590 352.5069 14.11229204 49483
1 26536U 00055A   01250.32609325  .00001024  00000-0  59149-3 0  4881
2 26536  98.8306 194.6919 0010610   7.6590 352.5069 14.11229204 49483
1 26536U 00055A   01255.28904067  .00000476  00000-0  28786-3 0  4896
2 26536  98.8313 199.5761 0010625 354.1376   5.8695 14.11231348 50182
1 26536U 00055A   01255.28904067  .00000476  00000-0  28786-3 0  4908
2 26536  98.8313 199.5761 0010625 354.1376   5.8695 14.11231348 50182
1 26536U 00055A   01255.28904067  .00000476  00000-0  28786-3 0  4920
2 26536  98.8313 199.5761 0010625 354.1376   5.8695 14.11231348 50182
1 26536U 00055A   01255.28904067  .00000476  00000-0  28786-3 0  4931
2 26536  98.8313 199.5761 0010625 354.1376   5.8695 14.11231348 50182
1 26536U 00055A   01256.77795774  .00000396  00000-0  21957-3 0  4911
2 26536  98.8325 201.0401 0010641 349.6053  10.5368 14.11232499 50395
1 26536U 00055A   01258.19593623  .00000407  00000-0  24966-3 0  4958
2 26536  98.8319 202.4342 0010533 345.5183  14.5745 14.11234327 50593
1 26536U 00055A   01258.19593623  .00000407  00000-0  24966-3 0  4970
2 26536  98.8319 202.4342 0010533 345.5183  14.5745 14.11234327 50593
1 26536U 00055A   01261.24460428  .00002828  00000-0  15898-2 0  4989
2 26536  98.8347 205.4393 0010520 335.9078  24.2123 14.11246879 51027
1 26536U 00055A   01261.24460428  .00002828  00000-0  15898-2 0  5003
2 26536  98.8347 205.4393 0010520 335.9078  24.2123 14.11246879 51027
1 26536U 00055A   01261.24460428  .00002828  00000-0  15898-2 0  5014
2 26536  98.8347 205.4393 0010520 335.9078  24.2123 14.11246879 51027
1 26536U 00055A   01261.24460428  .00002828  00000-0  15898-2 0  5025
2 26536  98.8347 205.4393 0010520 335.9078  24.2123 14.11246879 51027
1 26536U 00055A   01264.86040242  .00000236  00000-0  15507-3 0  5034
2 26536  98.8330 208.9959 0010029 325.6148  34.2222 14.11242246 51534
1 26536U 00055A   01264.86040242  .00000236  00000-0  15507-3 0  5045
2 26536  98.8330 208.9959 0010029 325.6148  34.2222 14.11242246 51534
1 26536U 00055A   01267.48370535  .00000763  00000-0  44696-3 0  5076
2 26536  98.8322 211.5764 0009993 317.5332  42.5306 14.11247511 51908
1 26536U 00055A   01267.48370535  .00000763  00000-0  44696-3 0  5087
2 26536  98.8322 211.5764 0009993 317.5332  42.5306 14.11247511 51908
1 26536U 00055A   01267.48370535  .00000763  00000-0  44696-3 0  5098
2 26536  98.8322 211.5764 0009993 317.5332  42.5306 14.11247511 51908
1 26536U 00055A   01267.48370535  .00000763  00000-0  44696-3 0  5100
2 26536  98.8322 211.5764 0009993 317.5332  42.5306 14.11247511 51908
1 26536U 00055A   01270.46144161  .00000850  00000-0  49469-3 0  5117
2 26536  98.8332 214.5060 0009967 308.9631  51.0915 14.11254132 52323
1 26536U 00055A   01270.46144161  .00000850  00000-0  49469-3 0  5128
2 26536  98.8332 214.5060 0009967 308.9631  51.0915 14.11254132 52323
1 26536U 00055A   01270.46144161  .00000850  00000-0  49469-3 0  5139
2 26536  98.8332 214.5060 0009967 308.9631  51.0915 14.11254132 52323
1 26536U 00055A   01274.85712460  .00000944  00000-0  54660-3 0  5176
2 26536  98.8341 218.8353 0009809 295.3353  64.7069 14.11263557 52940
1 26536U 00055A   01274.85712460  .00000944  00000-0  54660-3 0  5187
2 26536  98.8341 218.8353 0009809 295.3353  64.7069 14.11263557 52940
1 26536U 00055A   01274.85712460  .00000944  00000-0  54660-3 0  5198
2 26536  98.8341 218.8353 0009809 295.3353  64.7069 14.11263557 52940
1 26536U 00055A   01278.33110972  .00001044  00000-0  60227-3 0  5216
2 26536  98.8346 222.2528 0009804 285.2002  74.8307 14.11272085 53430
1 26536U 00055A   01278.54379786  .00001359  00000-0  77629-3 0  5234
2 26536  98.8355 222.4636 0009777 282.7079  77.3114 14.11274655 53469
1 26536U 00055A   01280.03263857  .00001012  00000-0  58413-3 0  5261
2 26536  98.8358 223.9297 0009766 278.3915  81.6034 14.11276583 53673
1 26536U 00055A   01282.72673282  .00000464  00000-0  28086-3 0  5281
2 26536  98.8368 226.5829 0009721 270.3592  89.6154 14.11277707 54051
1 26536U 00055A   01282.72673282  .00000464  00000-0  28086-3 0  5304
2 26536  98.8368 226.5829 0009721 270.3592  89.6154 14.11277707 54051
1 26536U 00055A   01284.64096343  .00000573  00000-0  34116-3 0  5339
2 26536  98.8354 228.4671 0009750 265.1362  94.8733 14.11280373 54325
1 26536U 00055A   01284.64096343  .00000573  00000-0  34116-3 0  5340
2 26536  98.8354 228.4671 0009750 265.1362  94.8733 14.11280373 54325
1 26536U 00055A   01287.26415343  .00000688  00000-0  40496-3 0  5374
2 26536  98.8361 231.0475 0009813 257.1599 102.8708 14.11285427 54695
1 26536U 00055A   01287.26415343  .00000688  00000-0  40496-3 0  5385
2 26536  98.8361 231.0475 0009813 257.1599 102.8708 14.11285427 54695
1 26536U 00055A   01287.26415343  .00000688  00000-0  40496-3 0  5396
2 26536  98.8361 231.0475 0009813 257.1599 102.8708 14.11285427 54695
1 26536U 00055A   01287.26415343  .00000688  00000-0  40496-3 0  5408
2 26536  98.8361 231.0475 0009813 257.1599 102.8708 14.11285427 54695
1 26536U 00055A   01291.30526293  .00000685  00000-0  40344-3 0  5415
2 26536  98.8371 235.0305 0009958 243.7028 116.3617 14.11293863 55266
1 26536U 00055A   01291.30526293  .00000685  00000-0  40344-3 0  5426
2 26536  98.8371 235.0305 0009958 243.7028 116.3617 14.11293863 55266
1 26536U 00055A   01291.30526293  .00000685  00000-0  40344-3 0  5437
2 26536  98.8371 235.0305 0009958 243.7028 116.3617 14.11293863 55266
1 26536U 00055A   01293.92841924  .00000761  00000-0  44504-3 0  5457
2 26536  98.8388 237.6137 0010115 235.8145 124.2059 14.11297705 55632
1 26536U 00055A   01293.92841924  .00000761  00000-0  44504-3 0  5479
2 26536  98.8388 237.6137 0010115 235.8145 124.2059 14.11297705 55632
1 26536U 00055A   01293.92841924  .00000761  00000-0  44504-3 0  5491
2 26536  98.8388 237.6137 0010115 235.8145 124.2059 14.11297705 55632
1 26536U 00055A   01293.92841924  .00000761  00000-0  44504-3 0  5503
2 26536  98.8388 237.6137 0010115 235.8145 124.2059 14.11297705 55632
1 26536U 00055A   01293.92841924  .00000761  00000-0  44504-3 0  5514
2 26536  98.8388 237.6137 0010115 235.8145 124.2059 14.11297705 55632
1 26536U 00055A   01299.31652132  .00001570  00000-0  89239-3 0  5528
2 26536  98.8395 242.9195 0010489 219.4800 140.7192 14.11319060 56397
1 26536U 00055A   01299.31652132  .00001570  00000-0  89239-3 0  5562
2 26536  98.8395 242.9195 0010489 219.4800 140.7192 14.11319060 56397
1 26536U 00055A   01299.31652132  .00001570  00000-0  89239-3 0  5573
2 26536  98.8395 242.9195 0010489 219.4800 140.7192 14.11319060 56397
1 26536U 00055A   01299.31652132  .00001570  00000-0  89239-3 0  5584
2 26536  98.8395 242.9195 0010489 219.4800 140.7192 14.11319060 56397
1 26536U 00055A   01305.69701525  .00001326  00000-0  75727-3 0  5603
2 26536  98.8394 249.2044 0010657 201.3535 158.6300 14.11334348 57296
